{"type": "FeatureCollection", "features": [{"type": "Feature", "geometry": {"type": "Point", "coordinates": [103.81433666666666, 1.2384433333333333]}, "properties": {"id": "ais-563283000", "mmsi": "563283000", "name": "CLEANSEAS PROGRESS", "speed": 0, "course": 360, "heading": 511, "nav_status": "Moored", "timestamp": "2026-09-29 11:45:01.058866458 +0000 UTC", "region": "Strait of Malacca", "type": "vessel", "sanctioned": false, "sanctions_programs": [], "sdn_name": null, "sdn_remarks": null}}, {"type": "Feature", "geometry": {"type": "Point", "coordinates": [120.388085, 25.453015]}, "properties": {"id": "ais-413154000", "mmsi": "413154000", "name": "RUI JIN TAN", "speed": 12.1, "course": 38, "heading": 39, "nav_status": "Underway (engine)", "timestamp": "2026-09-29 11:46:15.050931886 +0000 UTC", "region": "Taiwan Strait", "type": "vessel", "sanctioned": false, "sanctions_programs": [], "sdn_name": null, "sdn_remarks": null}}, {"type": "Feature", "geometry": {"type": "Point", "coordinates": [103.86817666666667, 1.24155]}, "properties": {"id": "ais-548945000", "mmsi": "548945000", "name": "KALAPATI", "speed": 8.9, "course": 295.4, "heading": 300, "nav_status": "Underway (engine)", "timestamp": "2026-09-29 11:48:31.916836178 +0000 UTC", "region": "Strait of Malacca", "type": "vessel", "sanctioned": false, "sanctions_programs": [], "sdn_name": null, "sdn_remarks": null}}, {"type": "Feature", "geometry": {"type": "Point", "coordinates": [120.54352333333333, 25.493508333333335]}, "properties": {"id": "ais-219027000", "mmsi": "219027000", "name": "MAERSK EINDHOVEN", "speed": 11.1, "course": 36.6, "heading": 38, "nav_status": "Underway (engine)", "timestamp": "2026-09-29 11:46:35.106770658 +0000 UTC", "region": "Taiwan Strait", "type": "vessel", "sanctioned": false, "sanctions_programs": [], "sdn_name": null, "sdn_remarks": null}}, {"type": "Feature", "geometry": {"type": "Point", "coordinates": [-5.807168333333333, 35.792985]}, "properties": {"id": "ais-242132100", "mmsi": "242132100", "name": "=TAZIA2", "speed": 0, "course": 265, "heading": 265, "nav_status": "Underway (engine)", "timestamp": "2026-09-29 11:45:17.288025856 +0000 UTC", "region": "Strait of Gibraltar", "type": "vessel", "sanctioned": false, "sanctions_programs": [], "sdn_name": null, "sdn_remarks": null}}, {"type": "Feature", "geometry": {"type": "Point", "coordinates": [103.79795833333333, 1.2496183333333333]}, "properties": {"id": "ais-370159000", "mmsi": "370159000", "name": "UNA", "speed": 0, "course": 323.1, "heading": 84, "nav_status": "At anchor", "timestamp": "2026-09-29 11:45:17.952722701 +0000 UTC", "region": "Strait of Malacca", "type": "vessel", "sanctioned": false, "sanctions_programs": [], "sdn_name": null, "sdn_remarks": null}}, {"type": "Feature", "geometry": {"type": "Point", "coordinates": [-5.807806666666666, 35.792885]}, "properties": {"id": "ais-242007100", "mmsi": "242007100", "name": "PESCABONA4", "speed": 0, "course": 0, "heading": 0, "nav_status": "Engaged in fishing", "timestamp": "2026-09-29 11:45:19.111867312 +0000 UTC", "region": "Strait of Gibraltar", "type": "vessel", "sanctioned": false, "sanctions_programs": [], "sdn_name": null, "sdn_remarks": null}}, {"type": "Feature", "geometry": {"type": "Point", "coordinates": [120.32843666666666, 24.749925]}, "properties": {"id": "ais-311001605", "mmsi": "311001605", "name": "SAGA DISCOVERY", "speed": 11.2, "course": 212.4, "heading": 215, "nav_status": "Underway (engine)", "timestamp": "2026-09-29 11:45:20.355169382 +0000 UTC", "region": "Taiwan Strait", "type": "vessel", "sanctioned": false, "sanctions_programs": [], "sdn_name": null, "sdn_remarks": null}}, {"type": "Feature", "geometry": {"type": "Point", "coordinates": [103.78642666666666, 1.25595]}, "properties": {"id": "ais-566630000", "mmsi": "566630000", "name": "FERESA", "speed": 0, "course": 45.7, "heading": 511, "nav_status": "Underway (engine)", "timestamp": "2026-09-29 11:48:02.98435493 +0000 UTC", "region": "Strait of Malacca", "type": "vessel", "sanctioned": false, "sanctions_programs": [], "sdn_name": null, "sdn_remarks": null}}, {"type": "Feature", "geometry": {"type": "Point", "coordinates": [-5.500173333333334, 35.915391666666665]}, "properties": {"id": "ais-209649000", "mmsi": "209649000", "name": "STENA EUROPE", "speed": 14.8, "course": 33.1, "heading": 35, "nav_status": "Underway (engine)", "timestamp": "2026-09-29 11:46:36.014182999 +0000 UTC", "region": "Strait of Gibraltar", "type": "vessel", "sanctioned": false, "sanctions_programs": [], "sdn_name": null, "sdn_remarks": null}}, {"type": "Feature", "geometry": {"type": "Point", "coordinates": [-5.539831666666667, 35.86304833333334]}, "properties": {"id": "ais-242566400", "mmsi": "242566400", "name": "SVITZER OUEZZANE", "speed": 0, "course": 102.2, "heading": 138, "nav_status": "Underway (engine)", "timestamp": "2026-09-29 11:48:37.649400252 +0000 UTC", "region": "Strait of Gibraltar", "type": "vessel", "sanctioned": false, "sanctions_programs": [], "sdn_name": null, "sdn_remarks": null}}, {"type": "Feature", "geometry": {"type": "Point", "coordinates": [-5.554950000000001, 35.93076666666666]}, "properties": {"id": "ais-538010828", "mmsi": "538010828", "name": "TAURUS", "speed": 9.7, "course": 73, "heading": 72, "nav_status": "Underway (engine)", "timestamp": "2026-09-29 11:46:30.770056177 +0000 UTC", "region": "Strait of Gibraltar", "type": "vessel", "sanctioned": false, "sanctions_programs": [], "sdn_name": null, "sdn_remarks": null}}, {"type": "Feature", "geometry": {"type": "Point", "coordinates": [-5.807391666666666, 35.79293]}, "properties": {"id": "ais-242328400", "mmsi": "242328400", "name": "RIOMAU", "speed": 0, "course": 0, "heading": 0, "nav_status": "Underway (engine)", "timestamp": "2026-09-29 11:46:43.412259886 +0000 UTC", "region": "Strait of Gibraltar", "type": "vessel", "sanctioned": false, "sanctions_programs": [], "sdn_name": null, "sdn_remarks": null}}, {"type": "Feature", "geometry": {"type": "Point", "coordinates": [103.76876833333334, 1.1675516666666668]}, "properties": {"id": "ais-636017742", "mmsi": "636017742", "name": "SOUTHERN QUOKKA", "speed": 4.3, "course": 191, "heading": 203, "nav_status": "Underway (sailing)", "timestamp": "2026-09-29 11:45:32.586624994 +0000 UTC", "region": "Strait of Malacca", "type": "vessel", "sanctioned": false, "sanctions_programs": [], "sdn_name": null, "sdn_remarks": null}}, {"type": "Feature", "geometry": {"type": "Point", "coordinates": [120.37442166666666, 25.128443333333333]}, "properties": {"id": "ais-440442000", "mmsi": "440442000", "name": "SAWASDEE SPICA", "speed": 16.8, "course": 200.8, "heading": 201, "nav_status": "Underway (engine)", "timestamp": "2026-09-29 11:46:39.456318887 +0000 UTC", "region": "Taiwan Strait", "type": "vessel", "sanctioned": false, "sanctions_programs": [], "sdn_name": null, "sdn_remarks": null}}, {"type": "Feature", "geometry": {"type": "Point", "coordinates": [-5.306611666666667, 35.97363333333333]}, "properties": {"id": "ais-477552900", "mmsi": "477552900", "name": "MAERSK NAKURU", "speed": 12.6, "course": 105.4, "heading": 105, "nav_status": "Underway (engine)", "timestamp": "2026-09-29 11:48:26.506000791 +0000 UTC", "region": "Strait of Gibraltar", "type": "vessel", "sanctioned": false, "sanctions_programs": [], "sdn_name": null, "sdn_remarks": null}}, {"type": "Feature", "geometry": {"type": "Point", "coordinates": [-5.508325, 35.930076666666665]}, "properties": {"id": "ais-209106000", "mmsi": "209106000", "name": "NAPOLES", "speed": 20.1, "course": 206.9, "heading": 204, "nav_status": "Underway (engine)", "timestamp": "2026-09-29 11:46:36.174224712 +0000 UTC", "region": "Strait of Gibraltar", "type": "vessel", "sanctioned": false, "sanctions_programs": [], "sdn_name": null, "sdn_remarks": null}}, {"type": "Feature", "geometry": {"type": "Point", "coordinates": [-5.503551666666667, 35.89176333333333]}, "properties": {"id": "ais-273617080", "mmsi": "273617080", "name": "SINEGORSK", "speed": 0, "course": 137.8, "heading": 216, "nav_status": "Moored", "timestamp": "2026-09-29 11:45:38.325116217 +0000 UTC", "region": "Strait of Gibraltar", "type": "vessel", "sanctioned": false, "sanctions_programs": [], "sdn_name": null, "sdn_remarks": null}}, {"type": "Feature", "geometry": {"type": "Point", "coordinates": [120.25766666666667, 25.411749999999998]}, "properties": {"id": "ais-311002088", "mmsi": "311002088", "name": "BROAD RICH", "speed": 10.2, "course": 230, "heading": 228, "nav_status": "Underway (engine)", "timestamp": "2026-09-29 11:46:48.107057169 +0000 UTC", "region": "Taiwan Strait", "type": "vessel", "sanctioned": false, "sanctions_programs": [], "sdn_name": null, "sdn_remarks": null}}, {"type": "Feature", "geometry": {"type": "Point", "coordinates": [-5.489615, 35.89830666666667]}, "properties": {"id": "ais-242903000", "mmsi": "242903000", "name": "VB CIRES", "speed": 0, "course": 258.8, "heading": 245, "nav_status": "Unknown", "timestamp": "2026-09-29 11:45:39.416614188 +0000 UTC", "region": "Strait of Gibraltar", "type": "vessel", "sanctioned": false, "sanctions_programs": [], "sdn_name": null, "sdn_remarks": null}}, {"type": "Feature", "geometry": {"type": "Point", "coordinates": [-5.532276666666666, 35.870043333333335]}, "properties": {"id": "ais-219658000", "mmsi": "219658000", "name": "ANGELICA MAERSK", "speed": 0, "course": 357, "heading": 40, "nav_status": "Underway (engine)", "timestamp": "2026-09-29 11:48:02.688301269 +0000 UTC", "region": "Strait of Gibraltar", "type": "vessel", "sanctioned": false, "sanctions_programs": [], "sdn_name": null, "sdn_remarks": null}}, {"type": "Feature", "geometry": {"type": "Point", "coordinates": [103.80716666666667, 1.2609833333333333]}, "properties": {"id": "ais-563057500", "mmsi": "563057500", "name": "ASIANFAST 1", "speed": 5.3, "course": 89, "heading": 86, "nav_status": "Underway (sailing)", "timestamp": "2026-09-29 11:47:21.604066823 +0000 UTC", "region": "Strait of Malacca", "type": "vessel", "sanctioned": false, "sanctions_programs": [], "sdn_name": null, "sdn_remarks": null}}, {"type": "Feature", "geometry": {"type": "Point", "coordinates": [120.93881166666667, 25.271218333333334]}, "properties": {"id": "ais-563109600", "mmsi": "563109600", "name": "GREEN UNIVERSE", "speed": 11.7, "course": 32.1, "heading": 33, "nav_status": "Underway (engine)", "timestamp": "2026-09-29 11:45:53.3379855 +0000 UTC", "region": "Taiwan Strait", "type": "vessel", "sanctioned": false, "sanctions_programs": [], "sdn_name": null, "sdn_remarks": null}}, {"type": "Feature", "geometry": {"type": "Point", "coordinates": [-5.787616666666667, 35.842798333333334]}, "properties": {"id": "ais-620800268", "mmsi": "620800268", "name": "MARINE PRIME", "speed": 0, "course": 299, "heading": 67, "nav_status": "Not under command", "timestamp": "2026-09-29 11:45:43.339745397 +0000 UTC", "region": "Strait of Gibraltar", "type": "vessel", "sanctioned": false, "sanctions_programs": [], "sdn_name": null, "sdn_remarks": null}}, {"type": "Feature", "geometry": {"type": "Point", "coordinates": [-5.806351666666667, 35.792965]}, "properties": {"id": "ais-242064100", "mmsi": "242064100", "name": "TALA - 12", "speed": 0, "course": 0, "heading": 0, "nav_status": "Restricted maneuverability", "timestamp": "2026-09-29 11:48:04.897639225 +0000 UTC", "region": "Strait of Gibraltar", "type": "vessel", "sanctioned": false, "sanctions_programs": [], "sdn_name": null, "sdn_remarks": null}}, {"type": "Feature", "geometry": {"type": "Point", "coordinates": [103.81591666666667, 1.2624883333333334]}, "properties": {"id": "ais-563312500", "mmsi": "563312500", "name": "MAJESTIC ETERNITY", "speed": 1.3, "course": 79.3, "heading": 80, "nav_status": "Underway (engine)", "timestamp": "2026-09-29 11:48:47.791502282 +0000 UTC", "region": "Strait of Malacca", "type": "vessel", "sanctioned": false, "sanctions_programs": [], "sdn_name": null, "sdn_remarks": null}}, {"type": "Feature", "geometry": {"type": "Point", "coordinates": [-5.489956666666667, 35.89815]}, "properties": {"id": "ais-242905000", "mmsi": "242905000", "name": "VB MALABATA", "speed": 0, "course": 133.6, "heading": 238, "nav_status": "Unknown", "timestamp": "2026-09-29 11:48:56.73477136 +0000 UTC", "region": "Strait of Gibraltar", "type": "vessel", "sanctioned": false, "sanctions_programs": [], "sdn_name": null, "sdn_remarks": null}}, {"type": "Feature", "geometry": {"type": "Point", "coordinates": [103.80906666666667, 1.2262216666666668]}, "properties": {"id": "ais-565897000", "mmsi": "565897000", "name": "KIRANA QUINTYA", "speed": 0.1, "course": 236, "heading": 346, "nav_status": "At anchor", "timestamp": "2026-09-29 11:45:48.248274758 +0000 UTC", "region": "Strait of Malacca", "type": "vessel", "sanctioned": false, "sanctions_programs": [], "sdn_name": null, "sdn_remarks": null}}, {"type": "Feature", "geometry": {"type": "Point", "coordinates": [-5.534208333333334, 35.86919]}, "properties": {"id": "ais-242786300", "mmsi": "242786300", "name": "SVITZER OUED RMEL", "speed": 1.6, "course": 77.6, "heading": 511, "nav_status": "Underway (engine)", "timestamp": "2026-09-29 11:46:51.083309458 +0000 UTC", "region": "Strait of Gibraltar", "type": "vessel", "sanctioned": false, "sanctions_programs": [], "sdn_name": null, "sdn_remarks": null}}, {"type": "Feature", "geometry": {"type": "Point", "coordinates": [103.79050000000001, 1.2420833333333334]}, "properties": {"id": "ais-413334020", "mmsi": "413334020", "name": "MA YUE", "speed": 0, "course": 186, "heading": 335, "nav_status": "At anchor", "timestamp": "2026-09-29 11:45:51.492249944 +0000 UTC", "region": "Strait of Malacca", "type": "vessel", "sanctioned": false, "sanctions_programs": [], "sdn_name": null, "sdn_remarks": null}}, {"type": "Feature", "geometry": {"type": "Point", "coordinates": [-6.180793333333333, 36.498173333333334]}, "properties": {"id": "ais-512224243", "mmsi": "512224243", "name": "MINERVA LBTS", "speed": 0, "course": 337, "heading": 45, "nav_status": "Restricted maneuverability", "timestamp": "2026-09-29 11:45:52.093050708 +0000 UTC", "region": "Strait of Gibraltar", "type": "vessel", "sanctioned": false, "sanctions_programs": [], "sdn_name": null, "sdn_remarks": null}}, {"type": "Feature", "geometry": {"type": "Point", "coordinates": [-5.489333333333334, 35.898448333333334]}, "properties": {"id": "ais-242904000", "mmsi": "242904000", "name": "DALIA", "speed": 0.1, "course": 136.6, "heading": 511, "nav_status": "Unknown", "timestamp": "2026-09-29 11:47:53.087977102 +0000 UTC", "region": "Strait of Gibraltar", "type": "vessel", "sanctioned": false, "sanctions_programs": [], "sdn_name": null, "sdn_remarks": null}}, {"type": "Feature", "geometry": {"type": "Point", "coordinates": [103.77956666666667, 1.22952]}, "properties": {"id": "ais-563142000", "mmsi": "563142000", "name": "PENGUIN REDEEM", "speed": 6.1, "course": 187.4, "heading": 182, "nav_status": "Underway (sailing)", "timestamp": "2026-09-29 11:45:53.369465138 +0000 UTC", "region": "Strait of Malacca", "type": "vessel", "sanctioned": false, "sanctions_programs": [], "sdn_name": null, "sdn_remarks": null}}, {"type": "Feature", "geometry": {"type": "Point", "coordinates": [103.81943333333334, 1.262905]}, "properties": {"id": "ais-563247900", "mmsi": "563247900", "name": "MAJESTIC PASSION", "speed": 0, "course": 309, "heading": 89, "nav_status": "Underway (sailing)", "timestamp": "2026-09-29 11:48:32.601511965 +0000 UTC", "region": "Strait of Malacca", "type": "vessel", "sanctioned": false, "sanctions_programs": [], "sdn_name": null, "sdn_remarks": null}}, {"type": "Feature", "geometry": {"type": "Point", "coordinates": [103.75394833333333, 1.1220866666666667]}, "properties": {"id": "ais-567111000", "mmsi": "567111000", "name": "SUNISA NAREE", "speed": 7.4, "course": 45.6, "heading": 51, "nav_status": "Underway (engine)", "timestamp": "2026-09-29 11:45:53.626023037 +0000 UTC", "region": "Strait of Malacca", "type": "vessel", "sanctioned": false, "sanctions_programs": [], "sdn_name": null, "sdn_remarks": null}}, {"type": "Feature", "geometry": {"type": "Point", "coordinates": [103.78672666666667, 1.2035883333333333]}, "properties": {"id": "ais-563078420", "mmsi": "563078420", "name": "ENG HUP MARIN", "speed": 0, "course": 130.8, "heading": 213, "nav_status": "Restricted maneuverability", "timestamp": "2026-09-29 11:48:08.110321445 +0000 UTC", "region": "Strait of Malacca", "type": "vessel", "sanctioned": false, "sanctions_programs": [], "sdn_name": null, "sdn_remarks": null}}, {"type": "Feature", "geometry": {"type": "Point", "coordinates": [101.65797500000001, 2.3636616666666668]}, "properties": {"id": "ais-304523000", "mmsi": "304523000", "name": "BBC HOUSTON", "speed": 15.1, "course": 128.9, "heading": 128, "nav_status": "Underway (engine)", "timestamp": "2026-09-29 11:45:54.044486442 +0000 UTC", "region": "Strait of Malacca", "type": "vessel", "sanctioned": false, "sanctions_programs": [], "sdn_name": null, "sdn_remarks": null}}, {"type": "Feature", "geometry": {"type": "Point", "coordinates": [101.61061500000001, 2.4323449999999998]}, "properties": {"id": "ais-563293200", "mmsi": "563293200", "name": "ZIM MOUNT VINSON", "speed": 12.7, "course": 131.6, "heading": 133, "nav_status": "Underway (engine)", "timestamp": "2026-09-29 11:48:54.088076141 +0000 UTC", "region": "Strait of Malacca", "type": "vessel", "sanctioned": false, "sanctions_programs": [], "sdn_name": null, "sdn_remarks": null}}, {"type": "Feature", "geometry": {"type": "Point", "coordinates": [101.60978166666668, 2.41628]}, "properties": {"id": "ais-441450000", "mmsi": "441450000", "name": "C. CHALLENGER", "speed": 12.6, "course": 150.3, "heading": 155, "nav_status": "Underway (engine)", "timestamp": "2026-09-29 11:45:54.046592968 +0000 UTC", "region": "Strait of Malacca", "type": "vessel", "sanctioned": false, "sanctions_programs": [], "sdn_name": null, "sdn_remarks": null}}, {"type": "Feature", "geometry": {"type": "Point", "coordinates": [101.72543833333334, 2.3221383333333336]}, "properties": {"id": "ais-538009334", "mmsi": "538009334", "name": "COMMON ATLAS", "speed": 11.2, "course": 129, "heading": 129, "nav_status": "Underway (engine)", "timestamp": "2026-09-29 11:48:54.08740793 +0000 UTC", "region": "Strait of Malacca", "type": "vessel", "sanctioned": false, "sanctions_programs": [], "sdn_name": null, "sdn_remarks": null}}, {"type": "Feature", "geometry": {"type": "Point", "coordinates": [101.72564166666666, 2.398591666666667]}, "properties": {"id": "ais-538011080", "mmsi": "538011080", "name": "OCEAN FAITH", "speed": 11.7, "course": 308.6, "heading": 307, "nav_status": "Underway (engine)", "timestamp": "2026-09-29 11:45:54.048991263 +0000 UTC", "region": "Strait of Malacca", "type": "vessel", "sanctioned": false, "sanctions_programs": [], "sdn_name": null, "sdn_remarks": null}}, {"type": "Feature", "geometry": {"type": "Point", "coordinates": [101.74470500000001, 2.383355]}, "properties": {"id": "ais-538007492", "mmsi": "538007492", "name": "ELECTRA", "speed": 7.8, "course": 309.5, "heading": 307, "nav_status": "Underway (engine)", "timestamp": "2026-09-29 11:45:54.050258233 +0000 UTC", "region": "Strait of Malacca", "type": "vessel", "sanctioned": false, "sanctions_programs": [], "sdn_name": null, "sdn_remarks": null}}, {"type": "Feature", "geometry": {"type": "Point", "coordinates": [101.627555, 2.490085]}, "properties": {"id": "ais-538007486", "mmsi": "538007486", "name": "HYUNDAI VOYAGER", "speed": 16.8, "course": 307, "heading": 307, "nav_status": "Underway (engine)", "timestamp": "2026-09-29 11:45:54.05150005 +0000 UTC", "region": "Strait of Malacca", "type": "vessel", "sanctioned": false, "sanctions_programs": [], "sdn_name": null, "sdn_remarks": null}}, {"type": "Feature", "geometry": {"type": "Point", "coordinates": [101.57585, 2.44044]}, "properties": {"id": "ais-538011801", "mmsi": "538011801", "name": "MMSI 538011801", "speed": 12.1, "course": 125.1, "heading": 126, "nav_status": "Underway (engine)", "timestamp": "2026-09-29 11:45:54.052652751 +0000 UTC", "region": "Strait of Malacca", "type": "vessel", "sanctioned": false, "sanctions_programs": [], "sdn_name": null, "sdn_remarks": null}}, {"type": "Feature", "geometry": {"type": "Point", "coordinates": [101.721495, 2.4150366666666665]}, "properties": {"id": "ais-636020885", "mmsi": "636020885", "name": "LAKE COMO", "speed": 15, "course": 306.7, "heading": 306, "nav_status": "Underway (engine)", "timestamp": "2026-09-29 11:46:54.101266571 +0000 UTC", "region": "Strait of Malacca", "type": "vessel", "sanctioned": false, "sanctions_programs": [], "sdn_name": null, "sdn_remarks": null}}, {"type": "Feature", "geometry": {"type": "Point", "coordinates": [101.86380000000001, 2.2165583333333334]}, "properties": {"id": "ais-636093026", "mmsi": "636093026", "name": "MMSI 636093026", "speed": 11.4, "course": 127.8, "heading": 127, "nav_status": "Underway (engine)", "timestamp": "2026-09-29 11:45:54.053836483 +0000 UTC", "region": "Strait of Malacca", "type": "vessel", "sanctioned": false, "sanctions_programs": [], "sdn_name": null, "sdn_remarks": null}}, {"type": "Feature", "geometry": {"type": "Point", "coordinates": [101.69222666666666, 2.3520499999999998]}, "properties": {"id": "ais-538007910", "mmsi": "538007910", "name": "SEA DOMINATOR", "speed": 12.7, "course": 129.2, "heading": 128, "nav_status": "Underway (engine)", "timestamp": "2026-09-29 11:45:54.054444442 +0000 UTC", "region": "Strait of Malacca", "type": "vessel", "sanctioned": false, "sanctions_programs": [], "sdn_name": null, "sdn_remarks": null}}, {"type": "Feature", "geometry": {"type": "Point", "coordinates": [101.58382833333333, 2.4485566666666667]}, "properties": {"id": "ais-355328000", "mmsi": "355328000", "name": "MMSI 355328000", "speed": 12.8, "course": 120.5, "heading": 122, "nav_status": "Underway (engine)", "timestamp": "2026-09-29 11:45:54.055215262 +0000 UTC", "region": "Strait of Malacca", "type": "vessel", "sanctioned": false, "sanctions_programs": [], "sdn_name": null, "sdn_remarks": null}}, {"type": "Feature", "geometry": {"type": "Point", "coordinates": [101.63039, 2.3947766666666666]}, "properties": {"id": "ais-311001425", "mmsi": "311001425", "name": "MMSI 311001425", "speed": 9.6, "course": 178.1, "heading": 184, "nav_status": "Underway (engine)", "timestamp": "2026-09-29 11:47:54.063905491 +0000 UTC", "region": "Strait of Malacca", "type": "vessel", "sanctioned": false, "sanctions_programs": [], "sdn_name": null, "sdn_remarks": null}}, {"type": "Feature", "geometry": {"type": "Point", "coordinates": [101.69010499999999, 2.1929233333333333]}, "properties": {"id": "ais-636021491", "mmsi": "636021491", "name": "TAGA", "speed": 12.5, "course": 118.3, "heading": 119, "nav_status": "Underway (engine)", "timestamp": "2026-09-29 11:45:54.056447224 +0000 UTC", "region": "Strait of Malacca", "type": "vessel", "sanctioned": false, "sanctions_programs": [], "sdn_name": null, "sdn_remarks": null}}, {"type": "Feature", "geometry": {"type": "Point", "coordinates": [101.86272666666667, 2.288208333333333]}, "properties": {"id": "ais-636019362", "mmsi": "636019362", "name": "DELTA GLORY", "speed": 12.5, "course": 309.7, "heading": 311, "nav_status": "Underway (engine)", "timestamp": "2026-09-29 11:48:54.086843682 +0000 UTC", "region": "Strait of Malacca", "type": "vessel", "sanctioned": false, "sanctions_programs": [], "sdn_name": null, "sdn_remarks": null}}, {"type": "Feature", "geometry": {"type": "Point", "coordinates": [103.81126666666667, 1.2421900000000001]}, "properties": {"id": "ais-563083550", "mmsi": "563083550", "name": "CLEANSEAS JOY", "speed": 0, "course": 127.7, "heading": 304, "nav_status": "Underway (engine)", "timestamp": "2026-09-29 11:45:54.645775662 +0000 UTC", "region": "Strait of Malacca", "type": "vessel", "sanctioned": false, "sanctions_programs": [], "sdn_name": null, "sdn_remarks": null}}, {"type": "Feature", "geometry": {"type": "Point", "coordinates": [103.83301166666666, 1.1975200000000001]}, "properties": {"id": "ais-563542000", "mmsi": "563542000", "name": "CHLOE", "speed": 7.1, "course": 72.1, "heading": 21, "nav_status": "Underway (engine)", "timestamp": "2026-09-29 11:45:55.145489742 +0000 UTC", "region": "Strait of Malacca", "type": "vessel", "sanctioned": false, "sanctions_programs": [], "sdn_name": null, "sdn_remarks": null}}, {"type": "Feature", "geometry": {"type": "Point", "coordinates": [-5.51945, 35.87792]}, "properties": {"id": "ais-209678000", "mmsi": "209678000", "name": "POETA LOPEZ ANGLADA", "speed": 0, "course": 135, "heading": 340, "nav_status": "Moored", "timestamp": "2026-09-29 11:46:10.292861454 +0000 UTC", "region": "Strait of Gibraltar", "type": "vessel", "sanctioned": false, "sanctions_programs": [], "sdn_name": null, "sdn_remarks": null}}, {"type": "Feature", "geometry": {"type": "Point", "coordinates": [103.80600166666666, 1.21834]}, "properties": {"id": "ais-525108017", "mmsi": "525108017", "name": "MT.PANJANG", "speed": 0, "course": 311.5, "heading": 339, "nav_status": "Underway (sailing)", "timestamp": "2026-09-29 11:46:10.52083148 +0000 UTC", "region": "Strait of Malacca", "type": "vessel", "sanctioned": false, "sanctions_programs": [], "sdn_name": null, "sdn_remarks": null}}, {"type": "Feature", "geometry": {"type": "Point", "coordinates": [120.40717, 25.400378333333332]}, "properties": {"id": "ais-636026388", "mmsi": "636026388", "name": "FORESIGHT DIVA", "speed": 11.5, "course": 27.1, "heading": 28, "nav_status": "Underway (engine)", "timestamp": "2026-09-29 11:46:42.208131123 +0000 UTC", "region": "Taiwan Strait", "type": "vessel", "sanctioned": false, "sanctions_programs": [], "sdn_name": null, "sdn_remarks": null}}, {"type": "Feature", "geometry": {"type": "Point", "coordinates": [120.06889666666666, 25.156985000000002]}, "properties": {"id": "ais-413152000", "mmsi": "413152000", "name": "MMSI 413152000", "speed": 15.1, "course": 38.7, "heading": 38, "nav_status": "Underway (engine)", "timestamp": "2026-09-29 11:46:15.305624005 +0000 UTC", "region": "Taiwan Strait", "type": "vessel", "sanctioned": false, "sanctions_programs": [], "sdn_name": null, "sdn_remarks": null}}, {"type": "Feature", "geometry": {"type": "Point", "coordinates": [-5.514226666666667, 35.897693333333336]}, "properties": {"id": "ais-242127100", "mmsi": "242127100", "name": "TANGER EXPRESS", "speed": 14.4, "course": 18.1, "heading": 20, "nav_status": "Underway (engine)", "timestamp": "2026-09-29 11:46:16.599643062 +0000 UTC", "region": "Strait of Gibraltar", "type": "vessel", "sanctioned": false, "sanctions_programs": [], "sdn_name": null, "sdn_remarks": null}}, {"type": "Feature", "geometry": {"type": "Point", "coordinates": [103.80139166666666, 1.27353]}, "properties": {"id": "ais-5631101", "mmsi": "5631101", "name": "PSAB", "speed": 0, "course": 0, "heading": 511, "nav_status": "Unknown", "timestamp": "2026-09-29 11:47:18.874082601 +0000 UTC", "region": "Strait of Malacca", "type": "vessel", "sanctioned": false, "sanctions_programs": [], "sdn_name": null, "sdn_remarks": null}}, {"type": "Feature", "geometry": {"type": "Point", "coordinates": [103.80132333333333, 1.2381083333333334]}, "properties": {"id": "ais-563317400", "mmsi": "563317400", "name": "GOLDEN CENTAURUS", "speed": 0.1, "course": 321, "heading": 309, "nav_status": "At anchor", "timestamp": "2026-09-29 11:46:19.176820498 +0000 UTC", "region": "Strait of Malacca", "type": "vessel", "sanctioned": false, "sanctions_programs": [], "sdn_name": null, "sdn_remarks": null}}, {"type": "Feature", "geometry": {"type": "Point", "coordinates": [120.05785333333333, 25.060636666666667]}, "properties": {"id": "ais-249112000", "mmsi": "249112000", "name": "CMA CGM MISSOURI", "speed": 12, "course": 50.9, "heading": 52, "nav_status": "Underway (engine)", "timestamp": "2026-09-29 11:46:20.005402981 +0000 UTC", "region": "Taiwan Strait", "type": "vessel", "sanctioned": false, "sanctions_programs": [], "sdn_name": null, "sdn_remarks": null}}, {"type": "Feature", "geometry": {"type": "Point", "coordinates": [-5.014423333333334, 36.181225000000005]}, "properties": {"id": "ais-636022952", "mmsi": "636022952", "name": "AQUA ECO", "speed": 0.8, "course": 288.1, "heading": 4, "nav_status": "Underway (engine)", "timestamp": "2026-09-29 11:46:28.962338119 +0000 UTC", "region": "Strait of Gibraltar", "type": "vessel", "sanctioned": false, "sanctions_programs": [], "sdn_name": null, "sdn_remarks": null}}, {"type": "Feature", "geometry": {"type": "Point", "coordinates": [-5.309616666666667, 35.89795]}, "properties": {"id": "ais-224753000", "mmsi": "224753000", "name": "VOLCAN DE TENO", "speed": 9.9, "course": 177.2, "heading": 175, "nav_status": "Underway (engine)", "timestamp": "2026-09-29 11:48:25.725317854 +0000 UTC", "region": "Strait of Gibraltar", "type": "vessel", "sanctioned": false, "sanctions_programs": [], "sdn_name": null, "sdn_remarks": null}}, {"type": "Feature", "geometry": {"type": "Point", "coordinates": [103.70288333333333, 1.1828683333333332]}, "properties": {"id": "ais-440996000", "mmsi": "440996000", "name": "CLAYTON", "speed": 0, "course": 70, "heading": 148, "nav_status": "At anchor", "timestamp": "2026-09-29 11:46:21.787091114 +0000 UTC", "region": "Strait of Malacca", "type": "vessel", "sanctioned": false, "sanctions_programs": [], "sdn_name": null, "sdn_remarks": null}}, {"type": "Feature", "geometry": {"type": "Point", "coordinates": [-5.488146666666666, 35.89873166666666]}, "properties": {"id": "ais-242562300", "mmsi": "242562300", "name": "BALEA", "speed": 0, "course": 36.4, "heading": 132, "nav_status": "Underway (engine)", "timestamp": "2026-09-29 11:48:12.74378149 +0000 UTC", "region": "Strait of Gibraltar", "type": "vessel", "sanctioned": false, "sanctions_programs": [], "sdn_name": null, "sdn_remarks": null}}, {"type": "Feature", "geometry": {"type": "Point", "coordinates": [120.27774833333334, 25.360081666666666]}, "properties": {"id": "ais-566335000", "mmsi": "566335000", "name": "NYK FUSHIMI", "speed": 17.6, "course": 213.9, "heading": 213, "nav_status": "Underway (engine)", "timestamp": "2026-09-29 11:46:30.039139805 +0000 UTC", "region": "Taiwan Strait", "type": "vessel", "sanctioned": false, "sanctions_programs": [], "sdn_name": null, "sdn_remarks": null}}, {"type": "Feature", "geometry": {"type": "Point", "coordinates": [-5.3447466666666665, 35.922758333333334]}, "properties": {"id": "ais-210620000", "mmsi": "210620000", "name": "ANTRACYTH", "speed": 7.7, "course": 289.4, "heading": 285, "nav_status": "Underway (engine)", "timestamp": "2026-09-29 11:48:51.705191128 +0000 UTC", "region": "Strait of Gibraltar", "type": "vessel", "sanctioned": false, "sanctions_programs": [], "sdn_name": null, "sdn_remarks": null}}, {"type": "Feature", "geometry": {"type": "Point", "coordinates": [103.781745, 1.2172033333333334]}, "properties": {"id": "ais-312092000", "mmsi": "312092000", "name": "MMSI 312092000", "speed": 0.4, "course": 14.3, "heading": 511, "nav_status": "Unknown", "timestamp": "2026-09-29 11:46:32.621806906 +0000 UTC", "region": "Strait of Malacca", "type": "vessel", "sanctioned": false, "sanctions_programs": [], "sdn_name": null, "sdn_remarks": null}}, {"type": "Feature", "geometry": {"type": "Point", "coordinates": [103.78802333333333, 1.2335233333333333]}, "properties": {"id": "ais-566686000", "mmsi": "566686000", "name": "DEMURE", "speed": 2.4, "course": 349.2, "heading": 343, "nav_status": "Underway (engine)", "timestamp": "2026-09-29 11:46:34.85846588 +0000 UTC", "region": "Strait of Malacca", "type": "vessel", "sanctioned": false, "sanctions_programs": [], "sdn_name": null, "sdn_remarks": null}}, {"type": "Feature", "geometry": {"type": "Point", "coordinates": [-5.537735, 35.86504]}, "properties": {"id": "ais-636026315", "mmsi": "636026315", "name": "GAIA", "speed": 0, "course": 144.1, "heading": 220, "nav_status": "Underway (engine)", "timestamp": "2026-09-29 11:48:54.935883221 +0000 UTC", "region": "Strait of Gibraltar", "type": "vessel", "sanctioned": false, "sanctions_programs": [], "sdn_name": null, "sdn_remarks": null}}, {"type": "Feature", "geometry": {"type": "Point", "coordinates": [103.790855, 1.2486716666666666]}, "properties": {"id": "ais-563780000", "mmsi": "563780000", "name": "SINDO 12", "speed": 17.6, "course": 33.3, "heading": 511, "nav_status": "Underway (engine)", "timestamp": "2026-09-29 11:46:35.26661843 +0000 UTC", "region": "Strait of Malacca", "type": "vessel", "sanctioned": false, "sanctions_programs": [], "sdn_name": null, "sdn_remarks": null}}, {"type": "Feature", "geometry": {"type": "Point", "coordinates": [-5.501926666666666, 35.89336]}, "properties": {"id": "ais-352004630", "mmsi": "352004630", "name": "RUI AN YANG", "speed": 0, "course": 14.4, "heading": 214, "nav_status": "Underway (engine)", "timestamp": "2026-09-29 11:46:40.926911199 +0000 UTC", "region": "Strait of Gibraltar", "type": "vessel", "sanctioned": false, "sanctions_programs": [], "sdn_name": null, "sdn_remarks": null}}, {"type": "Feature", "geometry": {"type": "Point", "coordinates": [103.80253833333333, 1.22194]}, "properties": {"id": "ais-636026028", "mmsi": "636026028", "name": "TOP STAR", "speed": 0.2, "course": 309.4, "heading": 319, "nav_status": "At anchor", "timestamp": "2026-09-29 11:46:45.25284449 +0000 UTC", "region": "Strait of Malacca", "type": "vessel", "sanctioned": false, "sanctions_programs": [], "sdn_name": null, "sdn_remarks": null}}, {"type": "Feature", "geometry": {"type": "Point", "coordinates": [-5.568368333333334, 35.97586833333333]}, "properties": {"id": "ais-352003080", "mmsi": "352003080", "name": "TRANS SEA", "speed": 13, "course": 254.3, "heading": 252, "nav_status": "Underway (engine)", "timestamp": "2026-09-29 11:46:48.796996159 +0000 UTC", "region": "Strait of Gibraltar", "type": "vessel", "sanctioned": false, "sanctions_programs": [], "sdn_name": null, "sdn_remarks": null}}, {"type": "Feature", "geometry": {"type": "Point", "coordinates": [103.9151, 1.2664816666666667]}, "properties": {"id": "ais-563253500", "mmsi": "563253500", "name": "MARINE AZURE", "speed": 0.1, "course": 188.1, "heading": 106, "nav_status": "Underway (engine)", "timestamp": "2026-09-29 11:46:48.919076525 +0000 UTC", "region": "Strait of Malacca", "type": "vessel", "sanctioned": false, "sanctions_programs": [], "sdn_name": null, "sdn_remarks": null}}, {"type": "Feature", "geometry": {"type": "Point", "coordinates": [-5.501483333333334, 35.89407833333333]}, "properties": {"id": "ais-210564000", "mmsi": "210564000", "name": "KASSOS", "speed": 0, "course": 28.9, "heading": 37, "nav_status": "Moored", "timestamp": "2026-09-29 11:46:53.294177758 +0000 UTC", "region": "Strait of Gibraltar", "type": "vessel", "sanctioned": false, "sanctions_programs": [], "sdn_name": null, "sdn_remarks": null}}, {"type": "Feature", "geometry": {"type": "Point", "coordinates": [-5.490598333333334, 35.89785]}, "properties": {"id": "ais-242534400", "mmsi": "242534400", "name": "VB AMSA", "speed": 0.1, "course": 202, "heading": 64, "nav_status": "Underway (engine)", "timestamp": "2026-09-29 11:46:55.095284555 +0000 UTC", "region": "Strait of Gibraltar", "type": "vessel", "sanctioned": false, "sanctions_programs": [], "sdn_name": null, "sdn_remarks": null}}, {"type": "Feature", "geometry": {"type": "Point", "coordinates": [-6.060149999999999, 35.904923333333336]}, "properties": {"id": "ais-305044300", "mmsi": "305044300", "name": "GLADIATOR", "speed": 8.5, "course": 89, "heading": 85, "nav_status": "Underway (engine)", "timestamp": "2026-09-29 11:46:55.784171019 +0000 UTC", "region": "Strait of Gibraltar", "type": "vessel", "sanctioned": false, "sanctions_programs": [], "sdn_name": null, "sdn_remarks": null}}, {"type": "Feature", "geometry": {"type": "Point", "coordinates": [103.82578333333332, 1.2635783333333335]}, "properties": {"id": "ais-353184000", "mmsi": "353184000", "name": "MAJESTIC STAR", "speed": 0, "course": 43.7, "heading": 61, "nav_status": "Moored", "timestamp": "2026-09-29 11:46:57.409290699 +0000 UTC", "region": "Strait of Malacca", "type": "vessel", "sanctioned": false, "sanctions_programs": [], "sdn_name": null, "sdn_remarks": null}}, {"type": "Feature", "geometry": {"type": "Point", "coordinates": [-5.316966666666667, 35.89168666666667]}, "properties": {"id": "ais-224634780", "mmsi": "224634780", "name": "SALVAMAR ATRIA", "speed": 0, "course": 223.3, "heading": 511, "nav_status": "Underway (sailing)", "timestamp": "2026-09-29 11:48:08.326987978 +0000 UTC", "region": "Strait of Gibraltar", "type": "vessel", "sanctioned": false, "sanctions_programs": [], "sdn_name": null, "sdn_remarks": null}}, {"type": "Feature", "geometry": {"type": "Point", "coordinates": [103.88488666666667, 1.2460566666666668]}, "properties": {"id": "ais-563332600", "mmsi": "563332600", "name": "PAOLINA COSULICH", "speed": 0, "course": 160.4, "heading": 267, "nav_status": "Underway (engine)", "timestamp": "2026-09-29 11:48:48.430339929 +0000 UTC", "region": "Strait of Malacca", "type": "vessel", "sanctioned": false, "sanctions_programs": [], "sdn_name": null, "sdn_remarks": null}}, {"type": "Feature", "geometry": {"type": "Point", "coordinates": [103.77097499999999, 1.2186466666666667]}, "properties": {"id": "ais-572549220", "mmsi": "572549220", "name": "VALLIANZ PRESTIGE", "speed": 0.2, "course": 192.6, "heading": 87, "nav_status": "Restricted maneuverability", "timestamp": "2026-09-29 11:46:59.162650498 +0000 UTC", "region": "Strait of Malacca", "type": "vessel", "sanctioned": false, "sanctions_programs": [], "sdn_name": null, "sdn_remarks": null}}, {"type": "Feature", "geometry": {"type": "Point", "coordinates": [-5.811611666666667, 35.79494]}, "properties": {"id": "ais-242003100", "mmsi": "242003100", "name": "PESCABONA UNO", "speed": 0, "course": 0, "heading": 0, "nav_status": "Engaged in fishing", "timestamp": "2026-09-29 11:48:10.055509471 +0000 UTC", "region": "Strait of Gibraltar", "type": "vessel", "sanctioned": false, "sanctions_programs": [], "sdn_name": null, "sdn_remarks": null}}, {"type": "Feature", "geometry": {"type": "Point", "coordinates": [103.81298833333334, 1.2628266666666665]}, "properties": {"id": "ais-538009611", "mmsi": "538009611", "name": "OCEANXPLORER", "speed": 0, "course": 301.7, "heading": 262, "nav_status": "Moored", "timestamp": "2026-09-29 11:47:04.89188637 +0000 UTC", "region": "Strait of Malacca", "type": "vessel", "sanctioned": false, "sanctions_programs": [], "sdn_name": null, "sdn_remarks": null}}, {"type": "Feature", "geometry": {"type": "Point", "coordinates": [103.746085, 1.158695]}, "properties": {"id": "ais-256676000", "mmsi": "256676000", "name": "CMA CGM LEGACY", "speed": 0.1, "course": 139.7, "heading": 73, "nav_status": "At anchor", "timestamp": "2026-09-29 11:47:11.364670634 +0000 UTC", "region": "Strait of Malacca", "type": "vessel", "sanctioned": false, "sanctions_programs": [], "sdn_name": null, "sdn_remarks": null}}, {"type": "Feature", "geometry": {"type": "Point", "coordinates": [-5.806006666666667, 35.792946666666666]}, "properties": {"id": "ais-242603400", "mmsi": "242603400", "name": "PITTAR", "speed": 0, "course": 0, "heading": 0, "nav_status": "Moored", "timestamp": "2026-09-29 11:47:17.281321639 +0000 UTC", "region": "Strait of Gibraltar", "type": "vessel", "sanctioned": false, "sanctions_programs": [], "sdn_name": null, "sdn_remarks": null}}, {"type": "Feature", "geometry": {"type": "Point", "coordinates": [120.27122666666668, 25.453838333333334]}, "properties": {"id": "ais-414840000", "mmsi": "414840000", "name": "ZHOU SHENG 56", "speed": 11.9, "course": 31.4, "heading": 30, "nav_status": "Underway (engine)", "timestamp": "2026-09-29 11:47:18.031610469 +0000 UTC", "region": "Taiwan Strait", "type": "vessel", "sanctioned": false, "sanctions_programs": [], "sdn_name": null, "sdn_remarks": null}}, {"type": "Feature", "geometry": {"type": "Point", "coordinates": [103.77007499999999, 1.1324383333333332]}, "properties": {"id": "ais-538012502", "mmsi": "538012502", "name": "BULK EUROPA", "speed": 7.4, "course": 38.3, "heading": 49, "nav_status": "Underway (engine)", "timestamp": "2026-09-29 11:47:19.8984754 +0000 UTC", "region": "Strait of Malacca", "type": "vessel", "sanctioned": false, "sanctions_programs": [], "sdn_name": null, "sdn_remarks": null}}, {"type": "Feature", "geometry": {"type": "Point", "coordinates": [103.82155666666667, 1.2312083333333335]}, "properties": {"id": "ais-565332000", "mmsi": "565332000", "name": "VB RAJA", "speed": 9.2, "course": 250.6, "heading": 253, "nav_status": "Unknown", "timestamp": "2026-09-29 11:48:40.632224786 +0000 UTC", "region": "Strait of Malacca", "type": "vessel", "sanctioned": false, "sanctions_programs": [], "sdn_name": null, "sdn_remarks": null}}, {"type": "Feature", "geometry": {"type": "Point", "coordinates": [-5.047243333333333, 36.17534333333333]}, "properties": {"id": "ais-563068400", "mmsi": "563068400", "name": "HAFNIA DESPINA", "speed": 0.8, "course": 254.2, "heading": 25, "nav_status": "Underway (engine)", "timestamp": "2026-09-29 11:47:22.971196372 +0000 UTC", "region": "Strait of Gibraltar", "type": "vessel", "sanctioned": false, "sanctions_programs": [], "sdn_name": null, "sdn_remarks": null}}, {"type": "Feature", "geometry": {"type": "Point", "coordinates": [120.42059166666667, 25.432081666666665]}, "properties": {"id": "ais-572145220", "mmsi": "572145220", "name": "EQUINOX", "speed": 11.8, "course": 39.5, "heading": 42, "nav_status": "Underway (engine)", "timestamp": "2026-09-29 11:47:29.977282543 +0000 UTC", "region": "Taiwan Strait", "type": "vessel", "sanctioned": false, "sanctions_programs": [], "sdn_name": null, "sdn_remarks": null}}, {"type": "Feature", "geometry": {"type": "Point", "coordinates": [103.74928333333334, 1.1480849999999998]}, "properties": {"id": "ais-538007497", "mmsi": "538007497", "name": "PARTNERSHIP", "speed": 10.3, "course": 237.5, "heading": 237, "nav_status": "Underway (engine)", "timestamp": "2026-09-29 11:47:36.534427028 +0000 UTC", "region": "Strait of Malacca", "type": "vessel", "sanctioned": false, "sanctions_programs": [], "sdn_name": null, "sdn_remarks": null}}, {"type": "Feature", "geometry": {"type": "Point", "coordinates": [-5.417833333333333, 36.008799999999994]}, "properties": {"id": "ais-255915611", "mmsi": "255915611", "name": "SONGA TAURUS", "speed": 6.6, "course": 254.5, "heading": 252, "nav_status": "Underway (engine)", "timestamp": "2026-09-29 11:47:39.901630192 +0000 UTC", "region": "Strait of Gibraltar", "type": "vessel", "sanctioned": false, "sanctions_programs": [], "sdn_name": null, "sdn_remarks": null}}, {"type": "Feature", "geometry": {"type": "Point", "coordinates": [120.75583, 25.177290000000003]}, "properties": {"id": "ais-219710000", "mmsi": "219710000", "name": "BEIJING MAERSK", "speed": 17.7, "course": 222.8, "heading": 222, "nav_status": "Underway (engine)", "timestamp": "2026-09-29 11:47:40.044262599 +0000 UTC", "region": "Taiwan Strait", "type": "vessel", "sanctioned": false, "sanctions_programs": [], "sdn_name": null, "sdn_remarks": null}}, {"type": "Feature", "geometry": {"type": "Point", "coordinates": [-5.507858333333333, 35.887771666666666]}, "properties": {"id": "ais-224229670", "mmsi": "224229670", "name": "OMVAC REDES", "speed": 0.1, "course": 258.7, "heading": 4, "nav_status": "Restricted maneuverability", "timestamp": "2026-09-29 11:48:42.073588512 +0000 UTC", "region": "Strait of Gibraltar", "type": "vessel", "sanctioned": false, "sanctions_programs": [], "sdn_name": null, "sdn_remarks": null}}, {"type": "Feature", "geometry": {"type": "Point", "coordinates": [-5.920036666666666, 35.96425833333333]}, "properties": {"id": "ais-244170000", "mmsi": "244170000", "name": "IJBORG", "speed": 11.7, "course": 271, "heading": 270, "nav_status": "Underway (engine)", "timestamp": "2026-09-29 11:47:45.613004096 +0000 UTC", "region": "Strait of Gibraltar", "type": "vessel", "sanctioned": false, "sanctions_programs": [], "sdn_name": null, "sdn_remarks": null}}, {"type": "Feature", "geometry": {"type": "Point", "coordinates": [-5.342081666666667, 35.92611]}, "properties": {"id": "ais-538010059", "mmsi": "538010059", "name": "MARLIN LAGOS", "speed": 0.5, "course": 42.6, "heading": 220, "nav_status": "At anchor", "timestamp": "2026-09-29 11:47:45.960639125 +0000 UTC", "region": "Strait of Gibraltar", "type": "vessel", "sanctioned": false, "sanctions_programs": [], "sdn_name": null, "sdn_remarks": null}}, {"type": "Feature", "geometry": {"type": "Point", "coordinates": [-5.8068, 35.792905000000005]}, "properties": {"id": "ais-242695100", "mmsi": "242695100", "name": "EVA", "speed": 0, "course": 0, "heading": 0, "nav_status": "Underway (engine)", "timestamp": "2026-09-29 11:47:47.709969645 +0000 UTC", "region": "Strait of Gibraltar", "type": "vessel", "sanctioned": false, "sanctions_programs": [], "sdn_name": null, "sdn_remarks": null}}, {"type": "Feature", "geometry": {"type": "Point", "coordinates": [-5.008696666666666, 36.03967]}, "properties": {"id": "ais-477229400", "mmsi": "477229400", "name": "CSCL MERCURY", "speed": 11.1, "course": 82.6, "heading": 90, "nav_status": "Underway (engine)", "timestamp": "2026-09-29 11:47:50.487316486 +0000 UTC", "region": "Strait of Gibraltar", "type": "vessel", "sanctioned": false, "sanctions_programs": [], "sdn_name": null, "sdn_remarks": null}}, {"type": "Feature", "geometry": {"type": "Point", "coordinates": [-5.80964, 35.89707833333333]}, "properties": {"id": "ais-255916021", "mmsi": "255916021", "name": "HANSA CHRISTIANSOE", "speed": 7.2, "course": 87, "heading": 90, "nav_status": "Underway (engine)", "timestamp": "2026-09-29 11:47:51.191742681 +0000 UTC", "region": "Strait of Gibraltar", "type": "vessel", "sanctioned": false, "sanctions_programs": [], "sdn_name": null, "sdn_remarks": null}}, {"type": "Feature", "geometry": {"type": "Point", "coordinates": [103.81425166666666, 1.1920516666666667]}, "properties": {"id": "ais-565662000", "mmsi": "565662000", "name": "MARMORIS", "speed": 4.8, "course": 241.8, "heading": 246, "nav_status": "Underway (engine)", "timestamp": "2026-09-29 11:47:58.045144544 +0000 UTC", "region": "Strait of Malacca", "type": "vessel", "sanctioned": false, "sanctions_programs": [], "sdn_name": null, "sdn_remarks": null}}, {"type": "Feature", "geometry": {"type": "Point", "coordinates": [-5.521928333333333, 35.886428333333335]}, "properties": {"id": "ais-224209350", "mmsi": "224209350", "name": "OMVAC ARES", "speed": 1.2, "course": 274.2, "heading": 315, "nav_status": "Underway (engine)", "timestamp": "2026-09-29 11:47:59.701233333 +0000 UTC", "region": "Strait of Gibraltar", "type": "vessel", "sanctioned": false, "sanctions_programs": [], "sdn_name": null, "sdn_remarks": null}}, {"type": "Feature", "geometry": {"type": "Point", "coordinates": [-5.8094399999999995, 35.79289166666667]}, "properties": {"id": "ais-242910000", "mmsi": "242910000", "name": "EL ANDALUSS2", "speed": 0, "course": 0, "heading": 0, "nav_status": "Engaged in fishing", "timestamp": "2026-09-29 11:48:01.039990877 +0000 UTC", "region": "Strait of Gibraltar", "type": "vessel", "sanctioned": false, "sanctions_programs": [], "sdn_name": null, "sdn_remarks": null}}, {"type": "Feature", "geometry": {"type": "Point", "coordinates": [-5.4902500000000005, 35.89800666666667]}, "properties": {"id": "ais-242906000", "mmsi": "242906000", "name": "SPARTEL", "speed": 0, "course": 147.7, "heading": 257, "nav_status": "Unknown", "timestamp": "2026-09-29 11:48:04.553680429 +0000 UTC", "region": "Strait of Gibraltar", "type": "vessel", "sanctioned": false, "sanctions_programs": [], "sdn_name": null, "sdn_remarks": null}}, {"type": "Feature", "geometry": {"type": "Point", "coordinates": [103.798085, 1.2093566666666669]}, "properties": {"id": "ais-563019440", "mmsi": "563019440", "name": "MARINA ZANITE", "speed": 0.1, "course": 236.7, "heading": 511, "nav_status": "Underway (engine)", "timestamp": "2026-09-29 11:48:11.010624699 +0000 UTC", "region": "Strait of Malacca", "type": "vessel", "sanctioned": false, "sanctions_programs": [], "sdn_name": null, "sdn_remarks": null}}, {"type": "Feature", "geometry": {"type": "Point", "coordinates": [103.85105, 1.260795]}, "properties": {"id": "ais-563147700", "mmsi": "563147700", "name": "PSA VISION (NN27)", "speed": 102.3, "course": 360, "heading": 142, "nav_status": "Moored", "timestamp": "2026-09-29 11:48:28.679022438 +0000 UTC", "region": "Strait of Malacca", "type": "vessel", "sanctioned": false, "sanctions_programs": [], "sdn_name": null, "sdn_remarks": null}}, {"type": "Feature", "geometry": {"type": "Point", "coordinates": [-5.341658333333333, 35.91546166666667]}, "properties": {"id": "ais-248084000", "mmsi": "248084000", "name": "MAYA COSULICH", "speed": 0, "course": 49.2, "heading": 140, "nav_status": "Moored", "timestamp": "2026-09-29 11:48:28.962605718 +0000 UTC", "region": "Strait of Gibraltar", "type": "vessel", "sanctioned": false, "sanctions_programs": [], "sdn_name": null, "sdn_remarks": null}}, {"type": "Feature", "geometry": {"type": "Point", "coordinates": [-5.807781666666667, 35.79295666666667]}, "properties": {"id": "ais-242048100", "mmsi": "242048100", "name": "PESCABONA CINCO", "speed": 0, "course": 260, "heading": 260, "nav_status": "Underway (engine)", "timestamp": "2026-09-29 11:48:30.077928519 +0000 UTC", "region": "Strait of Gibraltar", "type": "vessel", "sanctioned": false, "sanctions_programs": [], "sdn_name": null, "sdn_remarks": null}}, {"type": "Feature", "geometry": {"type": "Point", "coordinates": [-5.749631666666667, 35.81679999999999]}, "properties": {"id": "ais-242943000", "mmsi": "242943000", "name": "SR MALABATA", "speed": 0, "course": 0, "heading": 0, "nav_status": "Restricted maneuverability", "timestamp": "2026-09-29 11:48:32.67243821 +0000 UTC", "region": "Strait of Gibraltar", "type": "vessel", "sanctioned": false, "sanctions_programs": [], "sdn_name": null, "sdn_remarks": null}}, {"type": "Feature", "geometry": {"type": "Point", "coordinates": [103.79926333333333, 1.1699650000000001]}, "properties": {"id": "ais-412440184", "mmsi": "412440184", "name": "MMSI 412440184", "speed": 9.4, "course": 246.1, "heading": 246, "nav_status": "Underway (engine)", "timestamp": "2026-09-29 11:48:35.58886405 +0000 UTC", "region": "Strait of Malacca", "type": "vessel", "sanctioned": false, "sanctions_programs": [], "sdn_name": null, "sdn_remarks": null}}, {"type": "Feature", "geometry": {"type": "Point", "coordinates": [103.825785, 1.2154733333333332]}, "properties": {"id": "ais-636025088", "mmsi": "636025088", "name": "YORK DOWNS", "speed": 0.1, "course": 30.8, "heading": 1, "nav_status": "At anchor", "timestamp": "2026-09-29 11:48:39.342648569 +0000 UTC", "region": "Strait of Malacca", "type": "vessel", "sanctioned": false, "sanctions_programs": [], "sdn_name": null, "sdn_remarks": null}}, {"type": "Feature", "geometry": {"type": "Point", "coordinates": [103.75403333333334, 1.1824833333333333]}, "properties": {"id": "ais-525107019", "mmsi": "525107019", "name": "EROWATI I", "speed": 0.1, "course": 220, "heading": 335, "nav_status": "Underway (engine)", "timestamp": "2026-09-29 11:48:40.963358333 +0000 UTC", "region": "Strait of Malacca", "type": "vessel", "sanctioned": false, "sanctions_programs": [], "sdn_name": null, "sdn_remarks": null}}, {"type": "Feature", "geometry": {"type": "Point", "coordinates": [-5.540466666666666, 35.86224166666667]}, "properties": {"id": "ais-248302000", "mmsi": "248302000", "name": "EXPRESS ARGENTINA", "speed": 0, "course": 325.5, "heading": 41, "nav_status": "Underway (engine)", "timestamp": "2026-09-29 11:48:52.470164366 +0000 UTC", "region": "Strait of Gibraltar", "type": "vessel", "sanctioned": false, "sanctions_programs": [], "sdn_name": null, "sdn_remarks": null}}, {"type": "Feature", "geometry": {"type": "Point", "coordinates": [101.54829, 2.5327833333333336]}, "properties": {"id": "ais-310744000", "mmsi": "310744000", "name": "GASLOG GLASGOW", "speed": 14.8, "course": 312.3, "heading": 311, "nav_status": "Underway (engine)", "timestamp": "2026-09-29 11:48:54.10118777 +0000 UTC", "region": "Strait of Malacca", "type": "vessel", "sanctioned": false, "sanctions_programs": [], "sdn_name": null, "sdn_remarks": null}}, {"type": "Feature", "geometry": {"type": "Point", "coordinates": [120.9384, 25.762648333333335]}, "properties": {"id": "ais-357196000", "mmsi": "357196000", "name": "YONG SHENG VII", "speed": 9.1, "course": 87.5, "heading": 91, "nav_status": "Underway (engine)", "timestamp": "2026-09-29 11:48:56.244068442 +0000 UTC", "region": "Taiwan Strait", "type": "vessel", "sanctioned": false, "sanctions_programs": [], "sdn_name": null, "sdn_remarks": null}}, {"type": "Feature", "geometry": {"type": "Point", "coordinates": [103.75610166666667, 1.2465716666666669]}, "properties": {"id": "ais-564822000", "mmsi": "564822000", "name": "MAERSK VARNA", "speed": 6.1, "course": 76.4, "heading": 75, "nav_status": "Underway (engine)", "timestamp": "2026-09-29 11:48:57.092933884 +0000 UTC", "region": "Strait of Malacca", "type": "vessel", "sanctioned": false, "sanctions_programs": [], "sdn_name": null, "sdn_remarks": null}}]}